ONEWEB-0098             
1 45442U 20020U   25193.67437608 -.00000151  00000+0 -46298-3 0  9994
2 45442  87.8831  88.7322 0002068  72.7076 287.4278 13.11419866258149
ONEWEB-0055             
1 45443U 20020V   25193.96260823 -.00000588  00000+0 -16950-2 0  9995
2 45443  87.8830  88.6783 0001896  76.1163 284.0175 13.11415395258155
ONEWEB-0093             
1 45444U 20020W   25193.93817480  .00000266  00000+0  71385-3 0  9995
2 45444  87.8829  88.6668 0001738  91.8120 268.3207 13.11416944258217
ONEWEB-0029             
1 45445U 20020X   25193.42005671 -.00000400  00000+0 -11643-2 0  9993
2 45445  87.8834  88.7822 0001909  82.3316 277.8029 13.11414506258128
ONEWEB-0068             
1 45446U 20020Y   25193.93790339  .00000430  00000+0  11762-2 0  9995
2 45446  87.8829  88.6679 0001906  83.1217 277.0128 13.11415177258136
ONEWEB-0046             
1 45447U 20020Z   25193.70066554  .00000564  00000+0  15561-2 0  9995
2 45447  87.8829  88.7251 0001627  82.5513 277.5800 13.11417007258110
ONEWEB-0063             
1 45448U 20020AA  25193.95836853 -.00000588  00000+0 -16952-2 0  9993
2 45448  87.8826  88.6717 0001649  75.4248 284.7062 13.11415375258233
ONEWEB-0019             
1 45449U 20020AB  25193.70321551  .00000506  00000+0  13925-2 0  9996
2 45449  87.8832  88.7406 0001952  78.2788 281.8558 13.11415501258042
